[{"OBJECT_NAME":"STARLINK-31815","OBJECT_ID":"2024-093V","EPOCH":"2026-01-17T16:29:39.683904","MEAN_MOTION":15.27604694,"ECCENTRICITY":0.00011814,"INCLINATION":42.9996,"RA_OF_ASC_NODE":137.0646,"ARG_OF_PERICENTER":268.4633,"MEAN_ANOMALY":91.6083,"EPHEMERIS_TYPE":0,"CLASSIFICATION_TYPE":"U","NORAD_CAT_ID":59801,"ELEMENT_SET_NO":999,"REV_AT_EPOCH":9489,"BSTAR":-5.4172071e-5,"MEAN_MOTION_DOT":-1.754e-5,"MEAN_MOTION_DDOT":0},{"OBJECT_NAME":"STARLINK-31814","OBJECT_ID":"2024-093W","EPOCH":"2026-01-17T09:10:20.246592","MEAN_MOTION":15.27575582,"ECCENTRICITY":0.00011571,"INCLINATION":43.0026,"RA_OF_ASC_NODE":139.0648,"ARG_OF_PERICENTER":271.395,"MEAN_ANOMALY":88.6769,"EPHEMERIS_TYPE":0,"CLASSIFICATION_TYPE":"U","NORAD_CAT_ID":59802,"ELEMENT_SET_NO":999,"REV_AT_EPOCH":9484,"BSTAR":5.5563173e-5,"MEAN_MOTION_DOT":1.267e-5,"MEAN_MOTION_DDOT":0},{"OBJECT_NAME":"STARLINK-31794","OBJECT_ID":"2024-093X","EPOCH":"2026-01-17T16:46:19.325856","MEAN_MOTION":15.27589177,"ECCENTRICITY":7.021e-5,"INCLINATION":42.9999,"RA_OF_ASC_NODE":137.152,"ARG_OF_PERICENTER":285.3513,"MEAN_ANOMALY":74.7261,"EPHEMERIS_TYPE":0,"CLASSIFICATION_TYPE":"U","NORAD_CAT_ID":59803,"ELEMENT_SET_NO":999,"REV_AT_EPOCH":9496,"BSTAR":4.8800878e-5,"MEAN_MOTION_DOT":1.082e-5,"MEAN_MOTION_DDOT":0},{"OBJECT_NAME":"STARLINK-31824","OBJECT_ID":"2024-093Y","EPOCH":"2026-01-17T16:40:46.648704","MEAN_MOTION":15.27582721,"ECCENTRICITY":6.511e-5,"INCLINATION":42.9966,"RA_OF_ASC_NODE":137.1208,"ARG_OF_PERICENTER":271.6543,"MEAN_ANOMALY":88.4234,"EPHEMERIS_TYPE":0,"CLASSIFICATION_TYPE":"U","NORAD_CAT_ID":59804,"ELEMENT_SET_NO":999,"REV_AT_EPOCH":9489,"BSTAR":3.0653475e-5,"MEAN_MOTION_DOT":5.82e-6,"MEAN_MOTION_DDOT":0},{"OBJECT_NAME":"STARLINK-31947","OBJECT_ID":"2024-097A","EPOCH":"2026-01-17T21:53:51.792000","MEAN_MOTION":15.27577678,"ECCENTRICITY":0.00015141,"INCLINATION":43.0005,"RA_OF_ASC_NODE":200.9036,"ARG_OF_PERICENTER":263.3706,"MEAN_ANOMALY":96.6974,"EPHEMERIS_TYPE":0,"CLASSIFICATION_TYPE":"U","NORAD_CAT_ID":59835,"ELEMENT_SET_NO":999,"REV_AT_EPOCH":9415,"BSTAR":1.1606274e-5,"MEAN_MOTION_DOT":5.7e-7,"MEAN_MOTION_DDOT":0},{"OBJECT_NAME":"STARLINK-31929","OBJECT_ID":"2024-097B","EPOCH":"2026-01-17T21:17:04.839648","MEAN_MOTION":15.27522857,"ECCENTRICITY":5.412e-5,"INCLINATION":43.0025,"RA_OF_ASC_NODE":201.5747,"ARG_OF_PERICENTER":264.997,"MEAN_ANOMALY":95.082,"EPHEMERIS_TYPE":0,"CLASSIFICATION_TYPE":"U","NORAD_CAT_ID":59836,"ELEMENT_SET_NO":999,"REV_AT_EPOCH":9414,"BSTAR":0.00050337205,"MEAN_MOTION_DOT":0.00013591,"MEAN_MOTION_DDOT":0},{"OBJECT_NAME":"STARLINK-31927","OBJECT_ID":"2024-097C","EPOCH":"2026-01-17T19:11:27.014208","MEAN_MOTION":15.27583336,"ECCENTRICITY":9.423e-5,"INCLINATION":42.9984,"RA_OF_ASC_NODE":201.7757,"ARG_OF_PERICENTER":271.6591,"MEAN_ANOMALY":88.4153,"EPHEMERIS_TYPE":0,"CLASSIFICATION_TYPE":"U","NORAD_CAT_ID":59837,"ELEMENT_SET_NO":999,"REV_AT_EPOCH":9413,"BSTAR":1.8332273e-5,"MEAN_MOTION_DOT":2.43e-6,"MEAN_MOTION_DDOT":0},{"OBJECT_NAME":"STARLINK-31855","OBJECT_ID":"2024-097D","EPOCH":"2026-01-17T21:48:17.513856","MEAN_MOTION":15.27603299,"ECCENTRICITY":0.00016773,"INCLINATION":42.9993,"RA_OF_ASC_NODE":200.8635,"ARG_OF_PERICENTER":272.4059,"MEAN_ANOMALY":87.66,"EPHEMERIS_TYPE":0,"CLASSIFICATION_TYPE":"U","NORAD_CAT_ID":59838,"ELEMENT_SET_NO":999,"REV_AT_EPOCH":9415,"BSTAR":0.00067614271,"MEAN_MOTION_DOT":0.00018404,"MEAN_MOTION_DDOT":0},{"OBJECT_NAME":"STARLINK-31887","OBJECT_ID":"2024-097E","EPOCH":"2026-01-17T21:22:36.348672","MEAN_MOTION":15.2757616,"ECCENTRICITY":0.00012502,"INCLINATION":43.002,"RA_OF_ASC_NODE":201.5983,"ARG_OF_PERICENTER":268.3074,"MEAN_ANOMALY":91.7635,"EPHEMERIS_TYPE":0,"CLASSIFICATION_TYPE":"U","NORAD_CAT_ID":59839,"ELEMENT_SET_NO":999,"REV_AT_EPOCH":9414,"BSTAR":-2.0358097e-5,"MEAN_MOTION_DOT":-8.22e-6,"MEAN_MOTION_DDOT":0},{"OBJECT_NAME":"STARLINK-31852","OBJECT_ID":"2024-097G","EPOCH":"2026-01-17T13:08:40.328736","MEAN_MOTION":15.31094795,"ECCENTRICITY":0.0004563,"INCLINATION":43.0023,"RA_OF_ASC_NODE":195.5421,"ARG_OF_PERICENTER":279.6791,"MEAN_ANOMALY":80.3547,"EPHEMERIS_TYPE":0,"CLASSIFICATION_TYPE":"U","NORAD_CAT_ID":59841,"ELEMENT_SET_NO":999,"REV_AT_EPOCH":9418,"BSTAR":-9.9734675e-5,"MEAN_MOTION_DOT":-3.332e-5,"MEAN_MOTION_DDOT":0},{"OBJECT_NAME":"STARLINK-31906","OBJECT_ID":"2024-097H","EPOCH":"2026-01-17T19:22:33.332736","MEAN_MOTION":15.27581769,"ECCENTRICITY":0.0001102,"INCLINATION":42.9993,"RA_OF_ASC_NODE":201.8335,"ARG_OF_PERICENTER":275.3726,"MEAN_ANOMALY":84.6999,"EPHEMERIS_TYPE":0,"CLASSIFICATION_TYPE":"U","NORAD_CAT_ID":59842,"ELEMENT_SET_NO":999,"REV_AT_EPOCH":9413,"BSTAR":-1.408007e-6,"MEAN_MOTION_DOT":-3.01e-6,"MEAN_MOTION_DDOT":0},{"OBJECT_NAME":"STARLINK-31857","OBJECT_ID":"2024-097J","EPOCH":"2026-01-17T21:39:02.591712","MEAN_MOTION":15.27583641,"ECCENTRICITY":0.00013117,"INCLINATION":43.0014,"RA_OF_ASC_NODE":200.8182,"ARG_OF_PERICENTER":254.3592,"MEAN_ANOMALY":105.7115,"EPHEMERIS_TYPE":0,"CLASSIFICATION_TYPE":"U","NORAD_CAT_ID":59843,"ELEMENT_SET_NO":999,"REV_AT_EPOCH":9415,"BSTAR":5.0460492e-5,"MEAN_MOTION_DOT":1.127e-5,"MEAN_MOTION_DDOT":0},{"OBJECT_NAME":"STARLINK-31851","OBJECT_ID":"2024-097K","EPOCH":"2026-01-17T20:25:15.244032","MEAN_MOTION":15.2758847,"ECCENTRICITY":0.00012917,"INCLINATION":43.0002,"RA_OF_ASC_NODE":201.2997,"ARG_OF_PERICENTER":261.3509,"MEAN_ANOMALY":98.7196,"EPHEMERIS_TYPE":0,"CLASSIFICATION_TYPE":"U","NORAD_CAT_ID":59844,"ELEMENT_SET_NO":999,"REV_AT_EPOCH":9414,"BSTAR":5.0755761e-5,"MEAN_MOTION_DOT":1.135e-5,"MEAN_MOTION_DDOT":0},{"OBJECT_NAME":"STARLINK-31903","OBJECT_ID":"2024-097L","EPOCH":"2026-01-17T20:35:53.860992","MEAN_MOTION":15.27580116,"ECCENTRICITY":0.00012879,"INCLINATION":43.0014,"RA_OF_ASC_NODE":194.4275,"ARG_OF_PERICENTER":293.7029,"MEAN_ANOMALY":66.3688,"EPHEMERIS_TYPE":0,"CLASSIFICATION_TYPE":"U","NORAD_CAT_ID":59845,"ELEMENT_SET_NO":999,"REV_AT_EPOCH":9422,"BSTAR":8.9086184e-5,"MEAN_MOTION_DOT":2.19e-5,"MEAN_MOTION_DDOT":0},{"OBJECT_NAME":"STARLINK-31922","OBJECT_ID":"2024-097M","EPOCH":"2026-01-17T21:44:35.721600","MEAN_MOTION":15.27584818,"ECCENTRICITY":0.00013501,"INCLINATION":43.0005,"RA_OF_ASC_NODE":200.8466,"ARG_OF_PERICENTER":263.444,"MEAN_ANOMALY":96.6258,"EPHEMERIS_TYPE":0,"CLASSIFICATION_TYPE":"U","NORAD_CAT_ID":59846,"ELEMENT_SET_NO":999,"REV_AT_EPOCH":9415,"BSTAR":5.1853838e-5,"MEAN_MOTION_DOT":1.165e-5,"MEAN_MOTION_DDOT":0},{"OBJECT_NAME":"STARLINK-31889","OBJECT_ID":"2024-097N","EPOCH":"2026-01-17T13:39:14.723424","MEAN_MOTION":15.27584635,"ECCENTRICITY":0.00018798,"INCLINATION":43.0058,"RA_OF_ASC_NODE":203.4907,"ARG_OF_PERICENTER":285.912,"MEAN_ANOMALY":74.1525,"EPHEMERIS_TYPE":0,"CLASSIFICATION_TYPE":"U","NORAD_CAT_ID":59847,"ELEMENT_SET_NO":999,"REV_AT_EPOCH":9409,"BSTAR":0.0001486337,"MEAN_MOTION_DOT":3.83e-5,"MEAN_MOTION_DDOT":0}]
