STARLINK-31815          
1 59801U 24093V   26017.68726486 -.00001754  00000+0 -54172-4 0  9995
2 59801  42.9996 137.0646 0001181 268.4633  91.6083 15.27604694 94895
STARLINK-31814          
1 59802U 24093W   26017.38217878  .00001267  00000+0  55563-4 0  9995
2 59802  43.0026 139.0648 0001157 271.3950  88.6769 15.27575582 94849
STARLINK-31794          
1 59803U 24093X   26017.69883479  .00001082  00000+0  48801-4 0  9998
2 59803  42.9999 137.1520 0000702 285.3513  74.7261 15.27589177 94961
STARLINK-31824          
1 59804U 24093Y   26017.69498436  .00000582  00000+0  30653-4 0  9994
2 59804  42.9966 137.1208 0000651 271.6543  88.4234 15.27582721 94895
STARLINK-31947          
1 59835U 24097A   26017.91240500  .00000057  00000+0  11606-4 0  9998
2 59835  43.0005 200.9036 0001514 263.3706  96.6974 15.27577678 94157
STARLINK-31929          
1 59836U 24097B   26017.88686157  .00013591  00000+0  50337-3 0  9997
2 59836  43.0025 201.5747 0000541 264.9970  95.0820 15.27522857 94146
STARLINK-31927          
1 59837U 24097C   26017.79961822  .00000243  00000+0  18332-4 0  9993
2 59837  42.9984 201.7757 0000942 271.6591  88.4153 15.27583336 94134
STARLINK-31855          
1 59838U 24097D   26017.90853604  .00018404  00000+0  67614-3 0  9999
2 59838  42.9993 200.8635 0001677 272.4059  87.6600 15.27603299 94155
STARLINK-31887          
1 59839U 24097E   26017.89069848 -.00000822  00000+0 -20358-4 0  9999
2 59839  43.0020 201.5983 0001250 268.3074  91.7635 15.27576160 94140
STARLINK-31852          
1 59841U 24097G   26017.54768899 -.00003332  00000+0 -99735-4 0  9990
2 59841  43.0023 195.5421 0004563 279.6791  80.3547 15.31094795 94180
STARLINK-31906          
1 59842U 24097H   26017.80733024 -.00000301  00000+0 -14080-5 0  9996
2 59842  42.9993 201.8335 0001102 275.3726  84.6999 15.27581769 94137
STARLINK-31857          
1 59843U 24097J   26017.90211333  .00001127  00000+0  50460-4 0  9998
2 59843  43.0014 200.8182 0001311 254.3592 105.7115 15.27583641 94151
STARLINK-31851          
1 59844U 24097K   26017.85087088  .00001135  00000+0  50756-4 0  9998
2 59844  43.0002 201.2997 0001291 261.3509  98.7196 15.27588470 94145
STARLINK-31903          
1 59845U 24097L   26017.85826228  .00002190  00000+0  89086-4 0  9996
2 59845  43.0014 194.4275 0001287 293.7029  66.3688 15.27580116 94227
STARLINK-31922          
1 59846U 24097M   26017.90596900  .00001165  00000+0  51854-4 0  9997
2 59846  43.0005 200.8466 0001350 263.4440  96.6258 15.27584818 94158
STARLINK-31889          
1 59847U 24097N   26017.56892041  .00003830  00000+0  14863-3 0  9994
2 59847  43.0058 203.4907 0001879 285.9120  74.1525 15.27584635 94094
